IRIDIUM 69              
1 25319U 98026A   24143.80612141  .00001263  00000+0  39521-3 0  9996
2 25319  86.3973 260.1074 0001662 167.7867 192.3373 14.39998688366867
IRIDIUM 71              
1 25320U 98026B   24143.81166846  .00001121  00000+0  34777-3 0  9996
2 25320  86.3979 254.8695 0000772  16.2905 343.8318 14.40312962367383
IRIDIUM 73              
1 25344U 98032C   24143.22558595  .00001306  00000+0  32847-3 0  9991
2 25344  86.4465 212.5989 0001884 105.5976 254.5436 14.50536148373866
IRIDIUM 82              
1 25467U 98051A   24143.89120284  .00012178  00000+0  62483-3 0  9999
2 25467  86.3743 297.7702 0126687 314.2297  44.8590 15.09580178364679
IRIDIUM 2               
1 25527U 98066A   24143.72659041  .00248759  00000+0  12863-2 0  9994
2 25527  85.4975 319.8195 0000096 176.0538 184.0737 15.80425468403899
